{
  "type": "FeatureCollection",
  "features": [
    {
      "type": "Feature",
      "properties": {
        "norad_id": 34790,
        "name": "COSMOS 2251 DEB",
        "group": "cosmos-2251-debris",
        "lat": 63.90123123369468,
        "lon": 6.988651358597346,
        "alt_km": 874.4207702826616,
        "timestamp": "2025-12-24T09:46:31.400120+00:00",
        "meta_object_name": "COSMOS 2251 DEB",
        "meta_object_id": "1993-036AAT",
        "meta_epoch": "2025-12-24T01:32:04.136928",
        "meta_mean_motion": 14.2466648,
        "meta_eccentricity": 0.0100595,
        "meta_inclination": 74.0528,
        "meta_ra_of_asc_node": 223.3172,
        "meta_arg_of_pericenter": 282.5368,
        "meta_mean_anomaly": 228.1574,
        "meta_ephemeris_type": 0,
        "meta_classification_type": "U",
        "meta_norad_cat_id": 34790,
        "meta_element_set_no": 999,
        "meta_rev_at_epoch": 86734,
        "meta_bstar": 0.00052029,
        "meta_mean_motion_dot": 1.249e-05,
        "meta_mean_motion_ddot": 0,
        "tle_line1": "1 34790U 93036AAT 25358.06393677  .00001249  00000+0  52029-3 0  9994",
        "tle_line2": "2 34790  74.0528 223.3172 0100595 282.5368 228.1574 14.24666480867343"
      },
      "geometry": {
        "type": "Point",
        "coordinates": [
          6.988651358597346,
          63.90123123369468
        ]
      }
    },
    {
      "type": "Feature",
      "properties": {
        "norad_id": 34792,
        "name": "COSMOS 2251 DEB",
        "group": "cosmos-2251-debris",
        "lat": -60.62531590484502,
        "lon": 116.95622405077202,
        "alt_km": 707.4283120158661,
        "timestamp": "2025-12-24T09:46:31.400131+00:00",
        "meta_object_name": "COSMOS 2251 DEB",
        "meta_object_id": "1993-036AAV",
        "meta_epoch": "2025-12-24T04:18:06.926976",
        "meta_mean_motion": 14.56048165,
        "meta_eccentricity": 0.0012384,
        "meta_inclination": 74.0179,
        "meta_ra_of_asc_node": 147.9963,
        "meta_arg_of_pericenter": 242.8366,
        "meta_mean_anomaly": 297.1203,
        "meta_ephemeris_type": 0,
        "meta_classification_type": "U",
        "meta_norad_cat_id": 34792,
        "meta_element_set_no": 999,
        "meta_rev_at_epoch": 87816,
        "meta_bstar": 0.0011601,
        "meta_mean_motion_dot": 5.09e-05,
        "meta_mean_motion_ddot": 0,
        "tle_line1": "1 34792U 93036AAV 25358.17924684  .00005090  00000+0  11601-2 0  9994",
        "tle_line2": "2 34792  74.0179 147.9963 0012384 242.8366 297.1203 14.56048165878167"
      },
      "geometry": {
        "type": "Point",
        "coordinates": [
          116.95622405077202,
          -60.62531590484502
        ]
      }
    },
    {
      "type": "Feature",
      "properties": {
        "norad_id": 34793,
        "name": "COSMOS 2251 DEB",
        "group": "cosmos-2251-debris",
        "lat": 61.38498163504693,
        "lon": -99.46065077147458,
        "alt_km": 731.312373838935,
        "timestamp": "2025-12-24T09:46:31.400141+00:00",
        "meta_object_name": "COSMOS 2251 DEB",
        "meta_object_id": "1993-036AAW",
        "meta_epoch": "2025-12-24T01:49:23.229984",
        "meta_mean_motion": 14.38661488,
        "meta_eccentricity": 0.0050798,
        "meta_inclination": 74.0018,
        "meta_ra_of_asc_node": 229.4239,
        "meta_arg_of_pericenter": 20.661,
        "meta_mean_anomaly": 129.5216,
        "meta_ephemeris_type": 0,
        "meta_classification_type": "U",
        "meta_norad_cat_id": 34793,
        "meta_element_set_no": 999,
        "meta_rev_at_epoch": 87493,
        "meta_bstar": 0.00021451,
        "meta_mean_motion_dot": 6.41e-06,
        "meta_mean_motion_ddot": 0,
        "tle_line1": "1 34793U 93036AAW 25358.07596331  .00000641  00000+0  21451-3 0  9990",
        "tle_line2": "2 34793  74.0018 229.4239 0050798  20.6610 129.5216 14.38661488874939"
      },
      "geometry": {
        "type": "Point",
        "coordinates": [
          -99.46065077147458,
          61.38498163504693
        ]
      }
    },
    {
      "type": "Feature",
      "properties": {
        "norad_id": 34796,
        "name": "COSMOS 2251 DEB",
        "group": "cosmos-2251-debris",
        "lat": -38.9560498602046,
        "lon": 27.85730401724202,
        "alt_km": 714.6741504258571,
        "timestamp": "2025-12-24T09:46:31.400152+00:00",
        "meta_object_name": "COSMOS 2251 DEB",
        "meta_object_id": "1993-036AAZ",
        "meta_epoch": "2025-12-23T23:23:31.265952",
        "meta_mean_motion": 14.487386,
        "meta_eccentricity": 0.0100282,
        "meta_inclination": 74.0284,
        "meta_ra_of_asc_node": 195.2796,
        "meta_arg_of_pericenter": 294.917,
        "meta_mean_anomaly": 191.4292,
        "meta_ephemeris_type": 0,
        "meta_classification_type": "U",
        "meta_norad_cat_id": 34796,
        "meta_element_set_no": 999,
        "meta_rev_at_epoch": 88190,
        "meta_bstar": 0.00051969,
        "meta_mean_motion_dot": 2.059e-05,
        "meta_mean_motion_ddot": 0,
        "tle_line1": "1 34796U 93036AAZ 25357.97466743  .00002059  00000+0  51969-3 0  9996",
        "tle_line2": "2 34796  74.0284 195.2796 0100282 294.9170 191.4292 14.48738600881905"
      },
      "geometry": {
        "type": "Point",
        "coordinates": [
          27.85730401724202,
          -38.9560498602046
        ]
      }
    },
    {
      "type": "Feature",
      "properties": {
        "norad_id": 34797,
        "name": "COSMOS 2251 DEB",
        "group": "cosmos-2251-debris",
        "lat": 70.98942858184913,
        "lon": -158.2658930257329,
        "alt_km": 740.5675707665005,
        "timestamp": "2025-12-24T09:46:31.400162+00:00",
        "meta_object_name": "COSMOS 2251 DEB",
        "meta_object_id": "1993-036ABA",
        "meta_epoch": "2025-12-22T12:22:54.757056",
        "meta_mean_motion": 14.42950692,
        "meta_eccentricity": 0.00710542,
        "meta_inclination": 73.9783,
        "meta_ra_of_asc_node": 81.7691,
        "meta_arg_of_pericenter": 193.6898,
        "meta_mean_anomaly": 166.2334,
        "meta_ephemeris_type": 0,
        "meta_classification_type": "U",
        "meta_norad_cat_id": 34797,
        "meta_element_set_no": 999,
        "meta_rev_at_epoch": 87556,
        "meta_bstar": 0.0021692417,
        "meta_mean_motion_dot": 7.461e-05,
        "meta_mean_motion_ddot": 0,
        "tle_line1": "1 34797U 93036ABA 25356.51591154  .00007461  00000+0  21692-2 0  9992",
        "tle_line2": "2 34797  73.9783  81.7691 0071054 193.6898 166.2334 14.42950692875560"
      },
      "geometry": {
        "type": "Point",
        "coordinates": [
          -158.2658930257329,
          70.98942858184913
        ]
      }
    },
    {
      "type": "Feature",
      "properties": {
        "norad_id": 34814,
        "name": "COSMOS 2251 DEB",
        "group": "cosmos-2251-debris",
        "lat": -13.05705762554246,
        "lon": 127.64203761579395,
        "alt_km": 733.1525961534771,
        "timestamp": "2025-12-24T09:46:31.400173+00:00",
        "meta_object_name": "COSMOS 2251 DEB",
        "meta_object_id": "1993-036ABD",
        "meta_epoch": "2025-12-23T04:46:16.254336",
        "meta_mean_motion": 14.3693492,
        "meta_eccentricity": 0.00554769,
        "meta_inclination": 73.8962,
        "meta_ra_of_asc_node": 306.0405,
        "meta_arg_of_pericenter": 193.3771,
        "meta_mean_anomaly": 230.9861,
        "meta_ephemeris_type": 0,
        "meta_classification_type": "U",
        "meta_norad_cat_id": 34814,
        "meta_element_set_no": 999,
        "meta_rev_at_epoch": 87483,
        "meta_bstar": 0.00068608274,
        "meta_mean_motion_dot": 2.041e-05,
        "meta_mean_motion_ddot": 0,
        "tle_line1": "1 34814U 93036ABD 25357.19879924  .00002041  00000+0  68608-3 0  9999",
        "tle_line2": "2 34814  73.8962 306.0405 0055476 193.3771 230.9861 14.36934920874833"
      },
      "geometry": {
        "type": "Point",
        "coordinates": [
          127.64203761579395,
          -13.05705762554246
        ]
      }
    },
    {
      "type": "Feature",
      "properties": {
        "norad_id": 34815,
        "name": "COSMOS 2251 DEB",
        "group": "cosmos-2251-debris",
        "lat": -65.82614103631549,
        "lon": 179.29118529107672,
        "alt_km": 599.9879697995411,
        "timestamp": "2025-12-24T09:46:31.400183+00:00",
        "meta_object_name": "COSMOS 2251 DEB",
        "meta_object_id": "1993-036ABE",
        "meta_epoch": "2025-12-24T00:21:06.840864",
        "meta_mean_motion": 14.78432618,
        "meta_eccentricity": 0.0058756,
        "meta_inclination": 74.0438,
        "meta_ra_of_asc_node": 219.6604,
        "meta_arg_of_pericenter": 286.3983,
        "meta_mean_anomaly": 73.0739,
        "meta_ephemeris_type": 0,
        "meta_classification_type": "U",
        "meta_norad_cat_id": 34815,
        "meta_element_set_no": 999,
        "meta_rev_at_epoch": 88794,
        "meta_bstar": 0.00075826,
        "meta_mean_motion_dot": 5.658e-05,
        "meta_mean_motion_ddot": 0,
        "tle_line1": "1 34815U 93036ABE 25358.01466251  .00005658  00000+0  75826-3 0  9994",
        "tle_line2": "2 34815  74.0438 219.6604 0058756 286.3983  73.0739 14.78432618887946"
      },
      "geometry": {
        "type": "Point",
        "coordinates": [
          179.29118529107672,
          -65.82614103631549
        ]
      }
    }
  ]
}